{"type":"FeatureCollection","features":[{"type":"Feature","properties":{"Name":"Daily Commute","Category":"Movement Path","Frequancy":5,"Rate":4},"geometry":{"coordinates":[[-73.96107169662949,40.80832636475236],[-73.961174826485,40.80836750271621],[-73.9616707902596,40.80768458944692],[-73.96266201378563,40.8080942274062],[-73.96291163613323,40.807736492057046],[-73.96282422630742,40.80770083467226],[-73.96289708481218,40.807602231800246],[-73.96369393657396,40.80793997489391],[-73.96193443499678,40.810361179913684],[-73.96234047039067,40.81052451752291],[-73.9553496445164,40.82008355119996],[-73.95551636065622,40.82015659404044],[-73.95629708891798,40.819765388244946]],"type":"LineString"},"id":0},{"type":"Feature","properties":{"Name":"For Special Meal","Category":"Movement Path","Frequancy":3,"Rate":2},"geometry":{"coordinates":[[-73.96106988361579,40.808327646666726],[-73.96117426779139,40.80836817316228],[-73.9616688793665,40.80768337291883],[-73.96266205365889,40.808094170020496],[-73.96291041900591,40.8077374111393],[-73.96282373599789,40.807700220979086],[-73.96289602647889,40.807602954337995],[-73.96369639010184,40.80794368667364],[-73.96375842961157,40.807842045424906],[-73.9641717038502,40.80800750905206],[-73.96403029920737,40.80821032081761],[-73.9639747952983,40.80821790430849],[-73.9666002735932,40.80424796126073],[-73.96852519340867,40.799208106727946],[-73.97207421731379,40.79430731978621],[-73.98004967892417,40.78383347200497],[-73.98185151831129,40.77903771190529],[-73.98218735474606,40.773276444831225],[-73.98165685169681,40.76834977681855],[-73.9839548025696,40.76158887903679],[-73.98583852841304,40.75562979265831],[-73.98641541857629,40.75580405925689],[-73.98665154403118,40.75506061906654],[-73.98744726570548,40.75535870433262],[-73.9906026893144,40.7510182651404],[-73.99041381953093,40.750938993046816]],"type":"LineString"},"id":1},{"type":"Feature","properties":{"Name":"Temporary Commute ","Category":"Movement Path","Frequancy":1,"Rate":1},"geometry":{"coordinates":[[-73.93739035242504,40.81536007755267],[-73.93745876113364,40.81526092776613],[-73.93923901448883,40.81601715145004],[-73.94537016151232,40.807753625498066],[-73.95404575705172,40.8113905825642],[-73.95496177567645,40.810079110364256],[-73.9578543509568,40.81124049421493],[-73.9608323957664,40.807130505783164],[-73.96167884885543,40.80749136992233],[-73.96156846711573,40.807643082690106],[-73.96166319572534,40.80769132139454],[-73.9611633423136,40.80836856300317],[-73.96106113270358,40.80832698741551]],"type":"LineString"},"id":2},{"type":"Feature","properties":{"Name":"Starbuck Columbia","Category":"Coffee","Frequancy":5,"Rate":5},"geometry":{"coordinates":[-73.96490560814068,40.80711633691317],"type":"Point"}},{"type":"Feature","properties":{"Category":"Meal","Name":"Shack Shack","Frequancy":5,"Rate":4},"geometry":{"coordinates":[-73.9642967868251,40.80795039123251],"type":"Point"}},{"type":"Feature","properties":{"Category":"Meal","Name":"Food Truck Columbia","Frequancy":1,"Rate":3},"geometry":{"coordinates":[-73.96412490338943,40.80802121968367],"type":"Point"}},{"type":"Feature","properties":{"Category":"Bar","Name":"Mexican Bar","Frequancy":1,"Rate":3},"geometry":{"coordinates":[-73.95936986747034,40.81465814310204],"type":"Point"}},{"type":"Feature","properties":{"Category":"Meal","Name":"Italian","Frequancy":2,"Rate":4},"geometry":{"coordinates":[-73.96034665064832,40.81417392371986],"type":"Point"},"id":7},{"type":"Feature","properties":{"Category":"Meal","Name":"Dumpling","Frequancy":1,"Rate":1},"geometry":{"coordinates":[-73.95983174805626,40.81403570207004],"type":"Point"}},{"type":"Feature","properties":{"Category":"Bar","Name":"Mexican","Frequancy":1,"Rate":3},"geometry":{"coordinates":[-73.95945590942141,40.81457928911448],"type":"Point"}},{"type":"Feature","properties":{"Category":"Coffee","Name":"Starbuck for Commute","Frequancy":4,"Rate":4},"geometry":{"coordinates":[-73.95908926706787,40.81505048827205],"type":"Point"}},{"type":"Feature","properties":{"Name":"Ramen","Category":"Meal","Frequancy":5,"Rate":4},"geometry":{"coordinates":[-73.95884572987427,40.815395411182664],"type":"Point"},"id":11},{"type":"Feature","properties":{"Name":"Bus Stop Diner","Category":"Meal","Frequancy":2,"Rate":2},"geometry":{"coordinates":[-73.9552360573221,40.82035598393503],"type":"Point"}},{"type":"Feature","properties":{"Category":"Grocery","Name":"Unhealthy Food","Frequancy":4,"Rate":5},"geometry":{"coordinates":[-73.95513157757891,40.820497493926524],"type":"Point"},"id":13},{"type":"Feature","properties":{"Category":"Grocery","Name":"Healthy Food","Frequancy":3,"Rate":3},"geometry":{"coordinates":[-73.95425018866882,40.820745881105125],"type":"Point"},"id":14},{"type":"Feature","properties":{"Category":"Coffee","Name":"Starbuck Harlem","Frequancy":2,"Rate":1},"geometry":{"coordinates":[-73.94507024002847,40.807823991022985],"type":"Point"}},{"type":"Feature","properties":{"Category":"Grocery","Name":"Target","Frequancy":1,"Rate":4},"geometry":{"coordinates":[-73.94664918553197,40.80846322509865],"type":"Point"}},{"type":"Feature","properties":{"Category":"Meal","Name":"Special Steak","Frequancy":2,"Rate":5},"geometry":{"coordinates":[-73.99030384727027,40.75106830984737],"type":"Point"}},{"type":"Feature","properties":{"Category":"Home","Name":"Broadway 3333","Frequancy":5,"Rate":4},"geometry":{"coordinates":[-73.95636658203368,40.81973743370375],"type":"Point"},"id":18},{"type":"Feature","properties":{"Category":"Home","Name":"Temporary Stay","Frequancy":2,"Rate":2},"geometry":{"coordinates":[-73.9373848699773,40.81536602305698],"type":"Point"}},{"type":"Feature","properties":{"Category":"Home","Name":"Avery Hall","Frequancy":5,"Rate":5},"geometry":{"coordinates":[-73.96095413906254,40.80829133041493],"type":"Point"}},{"type":"Feature","properties":{"Category":"Workout","Name":"Dodge Fitness Center","Frequancy":5,"Rate":5},"geometry":{"coordinates":[-73.96173204129734,40.8096782503811],"type":"Point"},"id":21},{"type":"Feature","properties":{"Category":"Coffee","Name":"Starbuck ESB","Frequancy":2,"Rate":4},"geometry":{"coordinates":[-73.98565873264346,40.748429310308495],"type":"Point"}},{"type":"Feature","properties":{"Category":"Meal","Name":"Korean Tofu","Frequancy":1,"Rate":2},"geometry":{"coordinates":[-73.98605299532123,40.74750326943729],"type":"Point"}},{"type":"Feature","properties":{"Category":"Meal","Name":"Steak","Frequancy":3,"Rate":5},"geometry":{"coordinates":[-73.9874095904212,40.74782352862613],"type":"Point"}},{"type":"Feature","properties":{"Category":"Bank","Name":"Woori Bank","Frequancy":1,"Rate":5},"geometry":{"coordinates":[-73.98531393120147,40.74775519118097],"type":"Point"}},{"type":"Feature","properties":{"Name":"Workout Path","Category":"Movement Path","Frequancy":5,"Rate":5},"geometry":{"coordinates":[[-73.96106804316804,40.80833201877897],[-73.9611687063641,40.80837400115868],[-73.96104220872695,40.808558858964915],[-73.96196118827461,40.80893384736177],[-73.96155820231537,40.809502428787226],[-73.96179105511442,40.80960132284545],[-73.96173074280046,40.809681859097054],[-73.96169654353407,40.809827851963036]],"type":"LineString"},"id":26}]}