{"type": "FeatureCollection", "features": [{"type": "Feature", "properties": {"ip": "23.56.163.15", "url": "https://siape.veta.naver.com/fxshow?su=SU10868&nrefreshx=0#frameId=da_public_left_tgtLREC&origin=https%3A%2F%2Fwww.naver.com&msgToken=2177444052.2987967&isFluid=false&runtime=NDPSDK"}, "geometry": {"type": "Point", "coordinates": [-74.0565, 40.7895]}}, {"type": "Feature", "properties": {"ip": "23.58.85.104", "url": "https://s.pstatic.net/static/newsstand/up/2025/0418/nsd181433494.png"}, "geometry": {"type": "Point", "coordinates": [-74.006, 40.7143]}}, {"type": "Feature", "properties": {"ip": "110.93.154.77", "url": "https://shopsquare.naver.com/api/auth"}, "geometry": {"type": "Point", "coordinates": [126.9784, 37.566]}}, {"type": "Feature", "properties": {"ip": "23.40.179.160", "url": "https://naverpa-phinf.pstatic.net/MjAyNTA2MTVfMTc4/MDAxNzQ5OTY3MjEyMzIy.7FtJosfbySe37jRHXrkpufPas-c4byxR5xsvqjdoanMg.F7MjvT_UJU37dP_c0Xk6Ueq2jB_o9Xr_GAniHFD1suwg.JPEG/342228_1_%EB%B3%B5%EC%82%AC_17499672123108671234746813297058.jpg"}, "geometry": {"type": "Point", "coordinates": [-74.0565, 40.7895]}}, {"type": "Feature", "properties": {"ip": "23.207.7.141", "url": "https://ssl.pstatic.net/tveta/libs/native_visual/18/NORMAL_IMAGE_MULTIBODY/entry/timeboard_basic.036e701208.css"}, "geometry": {"type": "Point", "coordinates": [-74.006, 40.7143]}}, {"type": "Feature", "properties": {"ip": "210.89.168.79", "url": "https://cologger.shopping.naver.com/api/v1/collect/exlogcr"}, "geometry": {"type": "Point", "coordinates": [126.9784, 37.566]}}, {"type": "Feature", "properties": {"ip": "23.12.45.40", "url": "https://phinf.pstatic.net/dthumb/?src=https://searchad-phinf.pstatic.net/MjAyNTAyMDdfMjQ4/MDAxNzM4OTAyMTY2OTMx.3VfAQu_TV2FRTD_a1KGq4xyApTEU9rhu4rue3o6RqzMg.AE04asBtsxYo10tehIyV8gF479xDSsM9gT1uQCdf01Mg.PNG/1122198-713a352d-7b07-45f0-9077-4a47dc116ff5.png&service=shopad&type=f250"}, "geometry": {"type": "Point", "coordinates": [-74.006, 40.7143]}}, {"type": "Feature", "properties": {"ip": "110.234.246.33", "url": "https://nam.veta.naver.com/gfp/v1?u=p_main_linebanner_bottom&xdid=p_main_linebanner_bottom&p=nrefreshx%3A0%2Cda_dom_id%3Ap_main_linebanner_bottom&an=www.naver.com&c=https%3A%2F%2Fwww.naver.com%2F&sn=web&sv=3.3.2&nt=0&iv=722ae52d-11b4-474f-b176-04325e839a0b&ivt=0&sa=0&rui=2743361357&br=0"}, "geometry": {"type": "Point", "coordinates": [-74.006, 40.7143]}}, {"type": "Feature", "properties": {"ip": "110.93.157.96", "url": "https://nelo2-col.navercorp.com/_store"}, "geometry": {"type": "Point", "coordinates": [126.9784, 37.566]}}, {"type": "Feature", "properties": {"ip": "110.93.151.131", "url": "https://shopsquare.naver.com/api/auth"}, "geometry": {"type": "Point", "coordinates": [126.9784, 37.566]}}, {"type": "Feature", "properties": {"ip": "203.104.164.27", "url": "https://tivan.naver.com/sc2/11/"}, "geometry": {"type": "Point", "coordinates": [-74.006, 40.7143]}}]}